INMARSAT 4-F2 (SOUTHPA*)
1 28899U 05044A   26195.80135087 -.00000272  00000+0  00000+0 0  9994
2 28899   5.1297  43.6594 0002676  61.5488 259.4290  1.00270280 75795
GSAT-8 (GAGAN/PRN 127)  
1 37605U 11022A   26195.99249263  .00000074  00000+0  00000+0 0  9993
2 37605   2.2009  81.4834 0002705 164.8463  98.9024  1.00273192 53498
LUCH 5A (SDCM/PRN 140)  
1 37951U 11074B   26195.62980606 -.00000063  00000+0  00000+0 0  9996
2 37951   8.8213  73.4026 0002603  60.6892 192.1111  1.00272985 53326
SES-5 (EGNOS/PRN 136)   
1 38652U 12036A   26195.77389398  .00000025  00000+0  00000+0 0  9998
2 38652   0.0471 318.8452 0001893 154.3989 102.9647  1.00271395 44734
GSAT-10 (GAGAN/PRN 128) 
1 38779U 12051B   26195.78939081 -.00000173  00000+0  00000+0 0  9991
2 38779   0.0928 264.7727 0007375 189.3721 205.6648  1.00272864 50379
LUCH 5B (SDCM/PRN 125)  
1 38977U 12061A   26195.41321913 -.00000150  00000+0  00000+0 0  9996
2 38977  10.5395  49.6048 0003892 146.9492 228.2086  1.00270374 49888
ASTRA 5B (EGNOS/PRN 123)
1 39617U 14011B   26195.84122597  .00000128  00000+0  00000+0 0  9993
2 39617   0.0778 301.3174 0001850 179.3620 138.3429  1.00267805 44941
LUCH 5V (SDCM/PRN 141)  
1 39727U 14023A   26195.72041288 -.00000281  00000+0  00000+0 0  9993
2 39727   5.1978  69.4503 0002061  83.9337 133.2571  1.00273815 44635
GSAT-15 (GAGAN/PRN 139) 
1 41028U 15065A   26195.36368464  .00000000  00000+0  00000+0 0  9993
2 41028   0.0277  63.4769 0003580  29.8725  63.3157  1.00267881 39074
EUTELSAT 117 WEST B (W*)
1 41589U 16038B   26194.92184275 -.00000017  00000+0  00000+0 0  9992
2 41589   0.0083 162.9812 0000266 316.7358  26.9360  1.00269922 36934
SES-15 (WAAS/PRN 133)   
1 42709U 17026A   26195.67603918  .00000052  00000+0  00000+0 0  9996
2 42709   0.0261 330.1277 0000260 133.0444 303.5689  1.00268487  7707
QZS-2 (QZSS/PRN 194)    
1 42738U 17028A   26195.44629182 -.00000120  00000+0  00000+0 0  9993
2 42738  39.3876 242.7519 0757556 269.5906  83.0468  1.00276942  7900
QZS-3 (QZSS/PRN 199)    
1 42917U 17048A   26195.94041624 -.00000357  00000+0  00000+0 0  9990
2 42917   0.0658 214.6613 0002510 271.8875 271.8337  1.00272217 32539
QZS-4 (QZSS/PRN 195)    
1 42965U 17062A   26193.73476241 -.00000331  00000+0  00000+0 0  9993
2 42965  40.0933 343.1604 0747458 268.5188  82.4158  1.00290649 32050
BEIDOU-3 G1 (PRN 130)   
1 43683U 18085A   26195.94717627 -.00000120  00000+0  00000+0 0  9994
2 43683   2.9356  96.6231 0007986 356.4037 340.7191  1.00272464 28333
EUTELSAT 5 WEST B (EGN*)
1 44624U 19067A   26195.62938687 -.00000051  00000+0  00000+0 0  9990
2 44624   0.0701 333.5012 0003096 138.5371  42.0158  1.00269913 24718
BEIDOU-3 G2 (PRN 144)   
1 45344U 20017A   26195.78878414 -.00000149  00000+0  00000+0 0  9993
2 45344   2.9180  47.7166 0001967  61.1824 187.7312  1.00269052 23535
BEIDOU-3 G3 (PRN 143)   
1 45807U 20040A   26195.79476417 -.00000364  00000+0  00000+0 0  9990
2 45807   2.5130  67.5210 0002264 309.4050 312.2941  1.00276866 22342
GALAXY 30 (WAAS/PRN 135)
1 46114U 20056C   26195.74814635  .00000029  00000+0  00000+0 0  9999
2 46114   0.0161  49.1335 0001966  66.2778 321.5171  1.00271630 21563
QZS-1R (QZSS/PRN 196)   
1 49336U 21096A   26195.57629205 -.00000304  00000+0  00000+0 0  9998
2 49336  37.5157  79.1769 0754906 272.2285 280.2291  1.00245239 17281
QZS-6 (QZSS/PRN 200)    
1 62876U 25023A   26195.68646480 -.00000240  00000+0  00000+0 0  9991
2 62876   0.0103 356.6814 0001806 135.5856 137.8370  1.00267098  5227
